{"type": "FeatureCollection", "features": [ {"type": "Feature", "properties": {"norad_id": 33867, "name": "IRIDIUM 33 DEB", "group": "iridium-33-debris", "lat": -46.529192162695914, "lon": -9.032790674749155, "alt_km": 418.87938525965, "timestamp": "2025-12-03T13:52:09.951188+00:00", "meta": {"OBJECT_NAME": "IRIDIUM 33 DEB", "OBJECT_ID": "1997-051AL", "EPOCH": "2025-12-03T07:53:15.166464", "MEAN_MOTION": 15.53727826, "ECCENTRICITY": 0.00121818, "INCLINATION": 86.3627, "RA_OF_ASC_NODE": 354.9416, "ARG_OF_PERICENTER": 99.5397, "MEAN_ANOMALY": 260.7241, "EPHEMERIS_TYPE": 0, "CLASSIFICATION_TYPE": "U", "NORAD_CAT_ID": 33867, "ELEMENT_SET_NO": 999, "REV_AT_EPOCH": 89364, "BSTAR": 0.0073072156, "MEAN_MOTION_DOT": 0.00497539, "MEAN_MOTION_DDOT": 0}, "tle": {"line1": "1 33867U 97051AL  25337.32864776  .00497539  00000+0  73072-2 0  9999", "line2": "2 33867  86.3627 354.9416 0012181  99.5397 260.7241 15.53727826893646"}}, "geometry": {"type": "Point", "coordinates": [-9.032790674749155, -46.529192162695914]}}, {"type": "Feature", "properties": {"norad_id": 33870, "name": "IRIDIUM 33 DEB", "group": "iridium-33-debris", "lat": -10.032890128721192, "lon": -117.17002874006437, "alt_km": 729.9869364870619, "timestamp": "2025-12-03T13:52:09.951200+00:00", "meta": {"OBJECT_NAME": "IRIDIUM 33 DEB", "OBJECT_ID": "1997-051AP", "EPOCH": "2025-12-03T04:49:08.389056", "MEAN_MOTION": 14.45760529, "ECCENTRICITY": 0.00204752, "INCLINATION": 86.3757, "RA_OF_ASC_NODE": 62.349, "ARG_OF_PERICENTER": 209.9044, "MEAN_ANOMALY": 178.6407, "EPHEMERIS_TYPE": 0, "CLASSIFICATION_TYPE": "U", "NORAD_CAT_ID": 33870, "ELEMENT_SET_NO": 999, "REV_AT_EPOCH": 87999, "BSTAR": 0.0011974106, "MEAN_MOTION_DOT": 4.273e-05, "MEAN_MOTION_DDOT": 0}, "tle": {"line1": "1 33870U 97051AP  25337.20079154  .00004273  00000+0  11974-2 0  9990", "line2": "2 33870  86.3757  62.3490 0020475 209.9044 178.6407 14.45760529879997"}}, "geometry": {"type": "Point", "coordinates": [-117.17002874006437, -10.032890128721192]}}, {"type": "Feature", "properties": {"norad_id": 33881, "name": "IRIDIUM 33 DEB", "group": "iridium-33-debris", "lat": 67.38564708019666, "lon": 119.44738702498753, "alt_km": 730.0799571492344, "timestamp": "2025-12-03T13:52:09.951211+00:00", "meta": {"OBJECT_NAME": "IRIDIUM 33 DEB", "OBJECT_ID": "1997-051BA", "EPOCH": "2025-12-03T08:52:49.328832", "MEAN_MOTION": 14.56290168, "ECCENTRICITY": 0.00611572, "INCLINATION": 86.3865, "RA_OF_ASC_NODE": 110.812, "ARG_OF_PERICENTER": 205.0667, "MEAN_ANOMALY": 213.9917, "EPHEMERIS_TYPE": 0, "CLASSIFICATION_TYPE": "U", "NORAD_CAT_ID": 33881, "ELEMENT_SET_NO": 999, "REV_AT_EPOCH": 87364, "BSTAR": 0.0026029881, "MEAN_MOTION_DOT": 0.00011848, "MEAN_MOTION_DDOT": 0}, "tle": {"line1": "1 33881U 97051BA  25337.37001538  .00011848  00000+0  26030-2 0  9996", "line2": "2 33881  86.3865 110.8120 0061157 205.0667 213.9917 14.56290168873642"}}, "geometry": {"type": "Point", "coordinates": [119.44738702498753, 67.38564708019666]}}, {"type": "Feature", "properties": {"norad_id": 33884, "name": "IRIDIUM 33 DEB", "group": "iridium-33-debris", "lat": 48.04450407892348, "lon": 18.00309719334637, "alt_km": 629.4164580284123, "timestamp": "2025-12-03T13:52:09.951222+00:00", "meta": {"OBJECT_NAME": "IRIDIUM 33 DEB", "OBJECT_ID": "1997-051BD", "EPOCH": "2025-12-03T02:24:03.793824", "MEAN_MOTION": 14.77130142, "ECCENTRICITY": 0.00106894, "INCLINATION": 86.3701, "RA_OF_ASC_NODE": 14.1694, "ARG_OF_PERICENTER": 359.2537, "MEAN_ANOMALY": 29.5165, "EPHEMERIS_TYPE": 0, "CLASSIFICATION_TYPE": "U", "NORAD_CAT_ID": 33884, "ELEMENT_SET_NO": 999, "REV_AT_EPOCH": 88705, "BSTAR": 0.0017255958, "MEAN_MOTION_DOT": 0.0001224, "MEAN_MOTION_DDOT": 0}, "tle": {"line1": "1 33884U 97051BD  25337.10004391  .00012240  00000+0  17256-2 0  9997", "line2": "2 33884  86.3701  14.1694 0010689 359.2537  29.5165 14.77130142887052"}}, "geometry": {"type": "Point", "coordinates": [18.00309719334637, 48.04450407892348]}}, {"type": "Feature", "properties": {"norad_id": 33886, "name": "IRIDIUM 33 DEB", "group": "iridium-33-debris", "lat": -71.99323550327361, "lon": -97.69502056556979, "alt_km": 771.1869528945417, "timestamp": "2025-12-03T13:52:09.951233+00:00", "meta": {"OBJECT_NAME": "IRIDIUM 33 DEB", "OBJECT_ID": "1997-051BF", "EPOCH": "2025-12-03T07:58:37.157664", "MEAN_MOTION": 14.36032893, "ECCENTRICITY": 0.00120623, "INCLINATION": 86.3832, "RA_OF_ASC_NODE": 71.1878, "ARG_OF_PERICENTER": 277.8221, "MEAN_ANOMALY": 146.0866, "EPHEMERIS_TYPE": 0, "CLASSIFICATION_TYPE": "U", "NORAD_CAT_ID": 33886, "ELEMENT_SET_NO": 999, "REV_AT_EPOCH": 87917, "BSTAR": 0.00031821928, "MEAN_MOTION_DOT": 9.45e-06, "MEAN_MOTION_DDOT": 0}, "tle": {"line1": "1 33886U 97051BF  25337.33237451  .00000945  00000+0  31822-3 0  9994", "line2": "2 33886  86.3832  71.1878 0012062 277.8221 146.0866 14.36032893879174"}}, "geometry": {"type": "Point", "coordinates": [-97.69502056556979, -71.99323550327361]}}, {"type": "Feature", "properties": {"norad_id": 33887, "name": "IRIDIUM 33 DEB", "group": "iridium-33-debris", "lat": 29.856815672429413, "lon": -174.78532018380415, "alt_km": 767.789522810288, "timestamp": "2025-12-03T13:52:09.951244+00:00", "meta": {"OBJECT_NAME": "IRIDIUM 33 DEB", "OBJECT_ID": "1997-051BG", "EPOCH": "2025-12-03T08:13:03.825696", "MEAN_MOTION": 14.37207474, "ECCENTRICITY": 0.00040333, "INCLINATION": 86.3052, "RA_OF_ASC_NODE": 7.4418, "ARG_OF_PERICENTER": 271.7393, "MEAN_ANOMALY": 100.6476, "EPHEMERIS_TYPE": 0, "CLASSIFICATION_TYPE": "U", "NORAD_CAT_ID": 33887, "ELEMENT_SET_NO": 999, "REV_AT_EPOCH": 88030, "BSTAR": 0.00021392763, "MEAN_MOTION_DOT": 6.56e-06, "MEAN_MOTION_DDOT": 0}, "tle": {"line1": "1 33887U 97051BG  25337.34240539  .00000656  00000+0  21393-3 0  9998", "line2": "2 33887  86.3052   7.4418 0004033 271.7393 100.6476 14.37207474880303"}}, "geometry": {"type": "Point", "coordinates": [-174.78532018380415, 29.856815672429413]}}, {"type": "Feature", "properties": {"norad_id": 33953, "name": "IRIDIUM 33 DEB", "group": "iridium-33-debris", "lat": 48.271730163272984, "lon": -126.30945109039712, "alt_km": 691.5296138802187, "timestamp": "2025-12-03T13:52:09.951255+00:00", "meta": {"OBJECT_NAME": "IRIDIUM 33 DEB", "OBJECT_ID": "1997-051BN", "EPOCH": "2025-12-03T05:09:00.716832", "MEAN_MOTION": 14.55157442, "ECCENTRICITY": 0.00184494, "INCLINATION": 86.3853, "RA_OF_ASC_NODE": 57.9126, "ARG_OF_PERICENTER": 131.9523, "MEAN_ANOMALY": 257.615, "EPHEMERIS_TYPE": 0, "CLASSIFICATION_TYPE": "U", "NORAD_CAT_ID": 33953, "ELEMENT_SET_NO": 999, "REV_AT_EPOCH": 88165, "BSTAR": 0.0017324452, "MEAN_MOTION_DOT": 7.523e-05, "MEAN_MOTION_DDOT": 0}, "tle": {"line1": "1 33953U 97051BN  25337.21459163  .00007523  00000+0  17324-2 0  9991", "line2": "2 33953  86.3853  57.9126 0018449 131.9523 257.6150 14.55157442881650"}}, "geometry": {"type": "Point", "coordinates": [-126.30945109039712, 48.271730163272984]}}, {"type": "Feature", "properties": {"norad_id": 33960, "name": "IRIDIUM 33 DEB", "group": "iridium-33-debris", "lat": 41.96259507279666, "lon": -62.79032236733515, "alt_km": 608.0299751918637, "timestamp": "2025-12-03T13:52:09.951266+00:00", "meta": {"OBJECT_NAME": "IRIDIUM 33 DEB", "OBJECT_ID": "1997-051BV", "EPOCH": "2025-12-03T07:47:15.987840", "MEAN_MOTION": 14.84371452, "ECCENTRICITY": 0.00070258, "INCLINATION": 86.2527, "RA_OF_ASC_NODE": 293.9503, "ARG_OF_PERICENTER": 74.7434, "MEAN_ANOMALY": 54.2273, "EPHEMERIS_TYPE": 0, "CLASSIFICATION_TYPE": "U", "NORAD_CAT_ID": 33960, "ELEMENT_SET_NO": 999, "REV_AT_EPOCH": 88727, "BSTAR": 0.0041778807, "MEAN_MOTION_DOT": 0.00035262, "MEAN_MOTION_DDOT": 0}, "tle": {"line1": "1 33960U 97051BV  25337.32449060  .00035262  00000+0  41779-2 0  9998", "line2": "2 33960  86.2527 293.9503 0007025  74.7434  54.2273 14.84371452887271"}}, "geometry": {"type": "Point", "coordinates": [-62.79032236733515, 41.96259507279666]}}, {"type": "Feature", "properties": {"norad_id": 33966, "name": "IRIDIUM 33 DEB", "group": "iridium-33-debris", "lat": 83.68570590195448, "lon": 84.7091565148728, "alt_km": 723.0580263726033, "timestamp": "2025-12-03T13:52:09.951277+00:00", "meta": {"OBJECT_NAME": "IRIDIUM 33 DEB", "OBJECT_ID": "1997-051CB", "EPOCH": "2025-12-03T05:26:31.518816", "MEAN_MOTION": 14.49526909, "ECCENTRICITY": 0.00063695, "INCLINATION": 86.3933, "RA_OF_ASC_NODE": 50.109, "ARG_OF_PERICENTER": 222.6841, "MEAN_ANOMALY": 191.0152, "EPHEMERIS_TYPE": 0, "CLASSIFICATION_TYPE": "U", "NORAD_CAT_ID": 33966, "ELEMENT_SET_NO": 999, "REV_AT_EPOCH": 88304, "BSTAR": 0.00087232157, "MEAN_MOTION_DOT": 3.363e-05, "MEAN_MOTION_DDOT": 0}, "tle": {"line1": "1 33966U 97051CB  25337.22675369  .00003363  00000+0  87232-3 0  9998", "line2": "2 33966  86.3933  50.1090 0006369 222.6841 191.0152 14.49526909883046"}}, "geometry": {"type": "Point", "coordinates": [84.7091565148728, 83.68570590195448]}}, {"type": "Feature", "properties": {"norad_id": 34071, "name": "IRIDIUM 33 DEB", "group": "iridium-33-debris", "lat": 24.23621393043717, "lon": -159.83762382004107, "alt_km": 720.922944993391, "timestamp": "2025-12-03T13:52:09.951287+00:00", "meta": {"OBJECT_NAME": "IRIDIUM 33 DEB", "OBJECT_ID": "1997-051CE", "EPOCH": "2025-12-03T04:52:11.058528", "MEAN_MOTION": 14.49394143, "ECCENTRICITY": 0.00094708, "INCLINATION": 86.3467, "RA_OF_ASC_NODE": 21.9734, "ARG_OF_PERICENTER": 133.4205, "MEAN_ANOMALY": 226.7789, "EPHEMERIS_TYPE": 0, "CLASSIFICATION_TYPE": "U", "NORAD_CAT_ID": 34071, "ELEMENT_SET_NO": 999, "REV_AT_EPOCH": 88196, "BSTAR": 0.00088021325, "MEAN_MOTION_DOT": 3.385e-05, "MEAN_MOTION_DDOT": 0}, "tle": {"line1": "1 34071U 97051CE  25337.20290577  .00003385  00000+0  88021-3 0  9999", "line2": "2 34071  86.3467  21.9734 0009470 133.4205 226.7789 14.49394143881960"}}, "geometry": {"type": "Point", "coordinates": [-159.83762382004107, 24.23621393043717]}}]}